STARLINK-2758
1 28638C 21044A   21325.16440557 -.00001367  00000-0 -91641-4 0  3252
2 28638  53.0557 322.4821 0001826  49.1260 354.3593 15.06390494    11
